{"type": "Feature", "geometry": {"type": "LineString", "coordinates": [[2.41127, 48.66509], [2.40848, 48.66683], [2.40454, 48.66829], [2.40153, 48.66984], [2.39931, 48.67121], [2.39622, 48.67367], [2.3922, 48.67616], [2.38775, 48.67842], [2.38675, 48.67979], [2.38596, 48.68231], [2.38588, 48.68409], [2.38692, 48.68721], [2.38855, 48.69007], [2.39029, 48.69228], [2.39306, 48.69499], [2.39739, 48.69864], [2.40016, 48.70146], [2.40157, 48.70348], [2.40479, 48.71131], [2.40561, 48.71253], [2.40675, 48.71367], [2.40822, 48.7146], [2.41444, 48.71773], [2.41993, 48.72078], [2.4222, 48.72168], [2.42438, 48.7224], [2.4278, 48.72322], [2.43601, 48.72444], [2.43808, 48.72492], [2.44129, 48.72588], [2.44254, 48.72646], [2.44335, 48.72706], [2.44406, 48.72823], [2.44458, 48.72971], [2.4449, 48.73171], [2.44468, 48.73581], [2.44433, 48.73673], [2.44348, 48.73789], [2.44032, 48.74063], [2.43682, 48.74488], [2.43505, 48.74655], [2.43188, 48.74862], [2.42645, 48.75153], [2.42272, 48.75415], [2.42161, 48.75558], [2.41943, 48.76027], [2.41875, 48.76117], [2.41743, 48.76228], [2.41345, 48.76497], [2.41197, 48.76677], [2.41152, 48.76975], [2.41195, 48.77446], [2.41253, 48.77547], [2.41469, 48.77723], [2.41678, 48.77994], [2.4206, 48.78562]]}, "properties": {"nom": "La Seine, de la plateforme de Ris-Orangis à la chaufferie de Vitry", "longueur_km": 17.3, "source": "IGN, BD TOPO, couche troncon_hydrographique (tronçons « la Seine »), service WFS de la Géoplateforme", "url": "https://geoservices.ign.fr/bdtopo", "licence": "Licence Ouverte Etalab 2.0", "extraction": "2026-09-26", "ecart_extremites_m": {"ris_R1": 269, "vitry_V1": 435}}}